ONEWEB-0118             
1 47264U 20100G   23359.92958989  .00000478  00000+0  12939-2 0  9991
2 47264  87.9002 170.5184 0001777  72.8647 287.2676 13.12442434146112
ONEWEB-0119             
1 47265U 20100H   23359.88193049 -.00000186  00000+0 -55192-3 0  9992
2 47265  87.9002 170.5660 0001528  99.7582 260.3719 13.12441105146082
ONEWEB-0120             
1 47266U 20100J   23359.91130867 -.00000056  00000+0 -19043-3 0  9997
2 47266  87.9005 170.5504 0001600  89.1483 270.9829 13.12441267146119
ONEWEB-0121             
1 47267U 20100K   23359.96930473 -.00001380  00000+0 -38732-2 0  9990
2 47267  87.8997 170.5350 0001284  94.1564 265.9712 13.12434852146030
ONEWEB-0122             
1 47268U 20100L   23360.04062610 -.00000274  00000+0 -79650-3 0  9997
2 47268  87.8998 170.5255 0001594  95.3165 264.8145 13.12442441145951
ONEWEB-0123             
1 47269U 20100M   23360.03600014 -.00000260  00000+0 -75765-3 0  9991
2 47269  87.9002 170.5345 0001549  93.5127 266.6179 13.12441626146094
ONEWEB-0124             
1 47270U 20100N   23360.02490409  .00000397  00000+0  10672-2 0  9991
2 47270  87.9003 170.5318 0001467 108.1975 251.9313 13.12442547145976
ONEWEB-0125             
1 47271U 20100P   23359.92324511  .00000356  00000+0  95448-3 0  9999
2 47271  87.9003 170.5094 0001125  80.6831 279.4425 13.12444417146028
